{"type": "FeatureCollection", "features": [{"type": "Feature", "properties": {"norad_id": 22490, "name": "SCD 1", "group": "resource", "lat": 15.39058937244075, "lon": 11.505670077475855, "alt_km": 764.0194932472032, "timestamp": "2025-12-03T13:52:09.221553+00:00", "meta": {"OBJECT_NAME": "SCD 1", "OBJECT_ID": "1993-009B", "EPOCH": "2025-12-03T07:10:02.871840", "MEAN_MOTION": 14.45987838, "ECCENTRICITY": 0.00418228, "INCLINATION": 24.971, "RA_OF_ASC_NODE": 336.9662, "ARG_OF_PERICENTER": 224.5876, "MEAN_ANOMALY": 157.8016, "EPHEMERIS_TYPE": 0, "CLASSIFICATION_TYPE": "U", "NORAD_CAT_ID": 22490, "ELEMENT_SET_NO": 999, "REV_AT_EPOCH": 73273, "BSTAR": 0.00014031036, "MEAN_MOTION_DOT": 7e-06, "MEAN_MOTION_DDOT": 0}, "tle": {"line1": "1 22490U 93009B   25337.29864435  .00000700  00000+0  14031-3 0  9997", "line2": "2 22490  24.9710 336.9662 0041822 224.5876 157.8016 14.45987838732735"}}, "geometry": {"type": "Point", "coordinates": [11.505670077475855, 15.39058937244075]}}, {"type": "Feature", "properties": {"norad_id": 25397, "name": "TECHSAT 1B (GO-32)", "group": "resource", "lat": 15.417971182561232, "lon": -41.92369629911327, "alt_km": 810.4068865288764, "timestamp": "2025-12-03T13:52:09.221581+00:00", "meta": {"OBJECT_NAME": "TECHSAT 1B (GO-32)", "OBJECT_ID": "1998-043D", "EPOCH": "2025-12-02T22:37:23.051424", "MEAN_MOTION": 14.24372494, "ECCENTRICITY": 0.00022459, "INCLINATION": 98.9913, "RA_OF_ASC_NODE": 319.9291, "ARG_OF_PERICENTER": 73.6007, "MEAN_ANOMALY": 286.5418, "EPHEMERIS_TYPE": 0, "CLASSIFICATION_TYPE": "U", "NORAD_CAT_ID": 25397, "ELEMENT_SET_NO": 999, "REV_AT_EPOCH": 42339, "BSTAR": 8.0124787e-05, "MEAN_MOTION_DOT": 1.39e-06, "MEAN_MOTION_DDOT": 0}, "tle": {"line1": "1 25397U 98043D   25336.94262791  .00000139  00000+0  80125-4 0  9991", "line2": "2 25397  98.9913 319.9291 0002245  73.6007 286.5418 14.24372494423392"}}, "geometry": {"type": "Point", "coordinates": [-41.92369629911327, 15.417971182561232]}}, {"type": "Feature", "properties": {"norad_id": 25504, "name": "SCD 2", "group": "resource", "lat": 24.979402193991174, "lon": -71.67469961015942, "alt_km": 741.884720381162, "timestamp": "2025-12-03T13:52:09.221598+00:00", "meta": {"OBJECT_NAME": "SCD 2", "OBJECT_ID": "1998-060A", "EPOCH": "2025-12-03T07:34:14.747808", "MEAN_MOTION": 14.45414838, "ECCENTRICITY": 0.00166895, "INCLINATION": 24.9937, "RA_OF_ASC_NODE": 200.0088, "ARG_OF_PERICENTER": 212.8278, "MEAN_ANOMALY": 308.9112, "EPHEMERIS_TYPE": 0, "CLASSIFICATION_TYPE": "U", "NORAD_CAT_ID": 25504, "ELEMENT_SET_NO": 999, "REV_AT_EPOCH": 43195, "BSTAR": 0.00010911376, "MEAN_MOTION_DOT": 5.73e-06, "MEAN_MOTION_DDOT": 0}, "tle": {"line1": "1 25504U 98060A   25337.31544847  .00000573  00000+0  10911-3 0  9994", "line2": "2 25504  24.9937 200.0088 0016689 212.8278 308.9112 14.45414838431958"}}, "geometry": {"type": "Point", "coordinates": [-71.67469961015942, 24.979402193991174]}}, {"type": "Feature", "properties": {"norad_id": 25757, "name": "DLR-TUBSAT", "group": "resource", "lat": 32.21908257289691, "lon": -43.69936300250674, "alt_km": 725.4542570639942, "timestamp": "2025-12-03T13:52:09.221612+00:00", "meta": {"OBJECT_NAME": "DLR-TUBSAT", "OBJECT_ID": "1999-029B", "EPOCH": "2025-12-03T05:27:06.500448", "MEAN_MOTION": 14.52351559, "ECCENTRICITY": 0.00133881, "INCLINATION": 98.6555, "RA_OF_ASC_NODE": 321.4478, "ARG_OF_PERICENTER": 222.7864, "MEAN_ANOMALY": 137.2289, "EPHEMERIS_TYPE": 0, "CLASSIFICATION_TYPE": "U", "NORAD_CAT_ID": 25757, "ELEMENT_SET_NO": 999, "REV_AT_EPOCH": 40480, "BSTAR": 6.0372164e-05, "MEAN_MOTION_DOT": 1.97e-06, "MEAN_MOTION_DDOT": 0}, "tle": {"line1": "1 25757U 99029B   25337.22715857  .00000197  00000+0  60372-4 0  9990", "line2": "2 25757  98.6555 321.4478 0013388 222.7864 137.2289 14.52351559404807"}}, "geometry": {"type": "Point", "coordinates": [-43.69936300250674, 32.21908257289691]}}, {"type": "Feature", "properties": {"norad_id": 25994, "name": "TERRA", "group": "resource", "lat": 5.560011170706063, "lon": -149.62002307423055, "alt_km": 691.1333986345062, "timestamp": "2025-12-03T13:52:09.221624+00:00", "meta": {"OBJECT_NAME": "TERRA", "OBJECT_ID": "1999-068A", "EPOCH": "2025-12-03T06:50:11.283648", "MEAN_MOTION": 14.60934762, "ECCENTRICITY": 0.00034007, "INCLINATION": 97.9762, "RA_OF_ASC_NODE": 29.3156, "ARG_OF_PERICENTER": 116.8267, "MEAN_ANOMALY": 317.1669, "EPHEMERIS_TYPE": 0, "CLASSIFICATION_TYPE": "U", "NORAD_CAT_ID": 25994, "ELEMENT_SET_NO": 999, "REV_AT_EPOCH": 38100, "BSTAR": 0.00016958517, "MEAN_MOTION_DOT": 7.86e-06, "MEAN_MOTION_DDOT": 0}, "tle": {"line1": "1 25994U 99068A   25337.28485282  .00000786  00000+0  16959-3 0  9993", "line2": "2 25994  97.9762  29.3156 0003400 116.8267 317.1669 14.60934762381002"}}, "geometry": {"type": "Point", "coordinates": [-149.62002307423055, 5.560011170706063]}}, {"type": "Feature", "properties": {"norad_id": 27004, "name": "MAROC-TUBSAT", "group": "resource", "lat": -80.03636855135586, "lon": -113.54109064583771, "alt_km": 992.4330540971278, "timestamp": "2025-12-03T13:52:09.221636+00:00", "meta": {"OBJECT_NAME": "MAROC-TUBSAT", "OBJECT_ID": "2001-056D", "EPOCH": "2025-12-03T00:51:45.195264", "MEAN_MOTION": 13.70252146, "ECCENTRICITY": 0.00191069, "INCLINATION": 99.7912, "RA_OF_ASC_NODE": 145.3111, "ARG_OF_PERICENTER": 285.9891, "MEAN_ANOMALY": 190.2699, "EPHEMERIS_TYPE": 0, "CLASSIFICATION_TYPE": "U", "NORAD_CAT_ID": 27004, "ELEMENT_SET_NO": 999, "REV_AT_EPOCH": 19932, "BSTAR": 3.3076027e-05, "MEAN_MOTION_DOT": -1.8e-07, "MEAN_MOTION_DDOT": 0}, "tle": {"line1": "1 27004U 01056D   25337.03593976 -.00000018  00000+0  33076-4 0  9999", "line2": "2 27004  99.7912 145.3111 0019106 285.9891 190.2699 13.70252146199328"}}, "geometry": {"type": "Point", "coordinates": [-113.54109064583771, -80.03636855135586]}}, {"type": "Feature", "properties": {"norad_id": 27424, "name": "AQUA", "group": "resource", "lat": 19.99635373136546, "lon": -64.77435335124974, "alt_km": 687.4934479180729, "timestamp": "2025-12-03T13:52:09.221648+00:00", "meta": {"OBJECT_NAME": "AQUA", "OBJECT_ID": "2002-022A", "EPOCH": "2025-12-03T09:22:17.037408", "MEAN_MOTION": 14.61772008, "ECCENTRICITY": 7.528e-05, "INCLINATION": 98.4024, "RA_OF_ASC_NODE": 298.1185, "ARG_OF_PERICENTER": 108.5664, "MEAN_ANOMALY": 6.1363, "EPHEMERIS_TYPE": 0, "CLASSIFICATION_TYPE": "U", "NORAD_CAT_ID": 27424, "ELEMENT_SET_NO": 999, "REV_AT_EPOCH": 25466, "BSTAR": 0.00033697547, "MEAN_MOTION_DOT": 1.632e-05, "MEAN_MOTION_DDOT": 0}, "tle": {"line1": "1 27424U 02022A   25337.39047497  .00001632  00000+0  33698-3 0  9991", "line2": "2 27424  98.4024 298.1185 0000752 108.5664   6.1363 14.61772008254664"}}, "geometry": {"type": "Point", "coordinates": [-64.77435335124974, 19.99635373136546]}}, {"type": "Feature", "properties": {"norad_id": 28051, "name": "IRS-P6 (RESOURCESAT-1)", "group": "resource", "lat": 12.064179399235229, "lon": 16.63881503835889, "alt_km": 816.5104708496501, "timestamp": "2025-12-03T13:52:09.221659+00:00", "meta": {"OBJECT_NAME": "IRS-P6 (RESOURCESAT-1)", "OBJECT_ID": "2003-046A", "EPOCH": "2025-12-03T09:03:43.172064", "MEAN_MOTION": 14.36067494, "ECCENTRICITY": 0.00636515, "INCLINATION": 98.2191, "RA_OF_ASC_NODE": 18.218, "ARG_OF_PERICENTER": 208.8868, "MEAN_ANOMALY": 208.2893, "EPHEMERIS_TYPE": 0, "CLASSIFICATION_TYPE": "U", "NORAD_CAT_ID": 28051, "ELEMENT_SET_NO": 999, "REV_AT_EPOCH": 15242, "BSTAR": 0.00012912676, "MEAN_MOTION_DOT": 3.43e-06, "MEAN_MOTION_DDOT": 0}, "tle": {"line1": "1 28051U 03046A   25337.37758301  .00000343  00000+0  12913-3 0  9991", "line2": "2 28051  98.2191  18.2180 0063651 208.8868 208.2893 14.36067494152429"}}, "geometry": {"type": "Point", "coordinates": [16.63881503835889, 12.064179399235229]}}, {"type": "Feature", "properties": {"norad_id": 28220, "name": "SHIYAN-1 (SY-1)", "group": "resource", "lat": 77.64015501335393, "lon": -102.12528118680271, "alt_km": 475.9701626879023, "timestamp": "2025-12-03T13:52:09.221670+00:00", "meta": {"OBJECT_NAME": "SHIYAN-1 (SY-1)", "OBJECT_ID": "2004-012A", "EPOCH": "2025-12-03T04:00:14.322816", "MEAN_MOTION": 15.27750794, "ECCENTRICITY": 0.00063394, "INCLINATION": 97.8957, "RA_OF_ASC_NODE": 38.143, "ARG_OF_PERICENTER": 0.9771, "MEAN_ANOMALY": 359.1478, "EPHEMERIS_TYPE": 0, "CLASSIFICATION_TYPE": "U", "NORAD_CAT_ID": 28220, "ELEMENT_SET_NO": 999, "REV_AT_EPOCH": 18110, "BSTAR": 0.00061449667, "MEAN_MOTION_DOT": 0.00016607, "MEAN_MOTION_DDOT": 0}, "tle": {"line1": "1 28220U 04012A   25337.16683244  .00016607  00000+0  61450-3 0  9993", "line2": "2 28220  97.8957  38.1430 0006339   0.9771 359.1478 15.27750794181100"}}, "geometry": {"type": "Point", "coordinates": [-102.12528118680271, 77.64015501335393]}}, {"type": "Feature", "properties": {"norad_id": 28376, "name": "AURA", "group": "resource", "lat": -0.2292601892588775, "lon": 107.72921105007087, "alt_km": 693.2458871422687, "timestamp": "2025-12-03T13:52:09.221682+00:00", "meta": {"OBJECT_NAME": "AURA", "OBJECT_ID": "2004-026A", "EPOCH": "2025-12-03T08:06:58.085856", "MEAN_MOTION": 14.60909844, "ECCENTRICITY": 0.00010832, "INCLINATION": 98.317, "RA_OF_ASC_NODE": 287.522, "ARG_OF_PERICENTER": 90.9864, "MEAN_ANOMALY": 269.146, "EPHEMERIS_TYPE": 0, "CLASSIFICATION_TYPE": "U", "NORAD_CAT_ID": 28376, "ELEMENT_SET_NO": 999, "REV_AT_EPOCH": 13761, "BSTAR": 0.00034859642, "MEAN_MOTION_DOT": 1.659e-05, "MEAN_MOTION_DDOT": 0}, "tle": {"line1": "1 28376U 04026A   25337.33817229  .00001659  00000+0  34860-3 0  9997", "line2": "2 28376  98.3170 287.5220 0001083  90.9864 269.1460 14.60909844137611"}}, "geometry": {"type": "Point", "coordinates": [107.72921105007087, -0.2292601892588775]}}]}